QIANFAN-73              
1 63159U 25046A   25245.87732912  .00000226  00000+0  33136-3 0  9996
2 63159  88.9857 330.4344 0016412  61.7565 298.5241 13.50968624 33793
QIANFAN-74              
1 63160U 25046B   25245.86078955  .00000250  00000+0  36873-3 0  9995
2 63160  88.9857 330.3246 0002124 109.2775 250.8606 13.50974285 33854
QIANFAN-75              
1 63161U 25046C   25245.92262633  .00000243  00000+0  35671-3 0  9998
2 63161  88.9858 330.5503 0017594  64.2165 296.0800 13.50970669 33731
QIANFAN-76              
1 63162U 25046D   25245.91841921  .00000227  00000+0  33293-3 0  9991
2 63162  88.9858 330.5318 0015193  65.7351 294.5386 13.50966970 33745
QIANFAN-77              
1 63163U 25046E   25245.91170278  .00000628  00000+0  44850-3 0  9998
2 63163  88.9854 329.3672 0015753  43.8005 316.4418 13.96033233 34384
QIANFAN-78              
1 63164U 25046F   25245.88556625  .00000244  00000+0  35951-3 0  9995
2 63164  88.9856 330.4003 0016623  67.3935 292.8973 13.50970306 33819
QIANFAN-79              
1 63165U 25046G   25245.91423340  .00000239  00000+0  35078-3 0  9991
2 63165  88.9860 330.5009 0016262  65.9037 294.3813 13.50972543 33767
QIANFAN-80              
1 63166U 25046H   25245.85674359  .00000249  00000+0  36747-3 0  9998
2 63166  88.9857 330.2166 0015371  70.3158 289.9650 13.50972432 33912
